NORAD_CAT_ID,OBJECT_NAME,OBJECT_TYPE,EPOCH,MEAN_MOTION,ECCENTRICITY,INCLINATION,RA_OF_ASC_NODE,ARG_OF_PERICENTER,MEAN_ANOMALY,BSTAR,MEAN_MOTION_DOT,MEAN_MOTION_DDOT,TLE_LINE0,TLE_LINE1,TLE_LINE2,SEMIMAJOR_AXIS,PERIOD,APOGEE,PERIGEE,DECAYED
53617.0,STARLINK-4601,PAYLOAD,2023-05-02 15:52:15,15.08848908,9.87e-05,53.2168,231.9986,106.0265,254.0836,0.00014213,1.975e-05,0.0,0 STARLINK-4601,1 53617U 22104AF  23122.66129277  .00001975  00000-0  14213-3 0  9997,2 53617  53.2168 231.9986 0000987 106.0265 254.0836 15.08848908 38326,6917.853,95.437,540.401,539.035,0.0
53617.0,STARLINK-4601,PAYLOAD,2023-05-02 23:49:12,15.0883947,9.25e-05,53.2167,230.5111,86.329,273.7808,6.7633e-05,7.89e-06,0.0,0 STARLINK-4601,1 53617U 22104AF  23122.99250105  .00000789  00000-0  67633-4 0  9995,2 53617  53.2167 230.5111 0000925  86.3290 273.7808 15.08839470 37803,6917.882,95.438,540.387,539.107,0.0
53617.0,STARLINK-4601,PAYLOAD,2023-05-03 12:32:18,15.08832198,8.43e-05,53.2159,228.1368,94.6177,265.4911,-1.6445e-05,-5.49e-06,0.0,0 STARLINK-4601,1 53617U 22104AF  23123.52243165 -.00000549  00000-0 -16445-4 0  9994,2 53617  53.2159 228.1368 0000843  94.6177 265.4911 15.08832198 37887,6917.904,95.438,540.352,539.186,0.0
53617.0,STARLINK-4601,PAYLOAD,2023-05-03 23:39:59,15.08838075,9.25e-05,53.2161,226.0562,78.0857,282.0238,2.3292e-05,8.3e-07,0.0,0 STARLINK-4601,1 53617U 22104AF  23123.98610842  .00000083  00000-0  23292-4 0  9993,2 53617  53.2161 226.0562 0000925  78.0857 282.0238 15.08838075 37950,6917.886,95.438,540.391,539.111,0.0
53617.0,STARLINK-4601,PAYLOAD,2023-05-04 13:58:27,15.08848809,8.79e-05,53.216,223.3803,91.5505,268.5588,2.0869e-05,4.5e-07,0.0,0 STARLINK-4601,1 53617U 22104AF  23124.58226150  .00000045  00000-0  20869-4 0  9990,2 53617  53.2160 223.3803 0000879  91.5505 268.5588 15.08848809 38612,6917.853,95.437,540.327,539.11,0.0
53617.0,STARLINK-4601,PAYLOAD,2023-05-04 15:33:50,15.08851816,8.92e-05,53.2159,223.0828,94.4549,265.6545,4.6525e-05,4.53e-06,0.0,0 STARLINK-4601,1 53617U 22104AF  23124.64849846  .00000453  00000-0  46525-4 0  9990,2 53617  53.2159 223.0828 0000892  94.4549 265.6545 15.08851816 38050,6917.844,95.437,540.326,539.092,0.0
53617.0,STARLINK-4601,PAYLOAD,2023-05-05 05:52:19,15.08830339,0.0001071,53.216,220.406,88.7728,271.3387,8.4673e-05,1.06e-05,0.0,0 STARLINK-4601,1 53617U 22104AF  23125.24467223  .00001060  00000-0  84673-4 0  9993,2 53617  53.2160 220.4060 0001071  88.7728 271.3387 15.08830339 38141,6917.91,95.438,540.516,539.034,0.0
53617.0,STARLINK-4601,PAYLOAD,2023-05-05 13:49:15,15.08835299,9.07e-05,53.2159,218.9192,85.2171,274.8925,5.9506e-05,6.59e-06,0.0,0 STARLINK-4601,1 53617U 22104AF  23125.57587136  .00000659  00000-0  59506-4 0  9995,2 53617  53.2159 218.9192 0000907  85.2171 274.8925 15.08835299 38762,6917.895,95.438,540.387,539.132,0.0
53617.0,STARLINK-4601,PAYLOAD,2023-05-06 15:15:24,15.08851989,8.38e-05,53.2166,214.1593,95.6315,264.4773,8.7117e-05,1.099e-05,0.0,0 STARLINK-4601,1 53617U 22104AF  23126.63570159  .00001099  00000-0  87117-4 0  9998,2 53617  53.2166 214.1593 0000838  95.6315 264.4773 15.08851989 38929,6917.844,95.437,540.288,539.129,0.0
53617.0,STARLINK-4601,PAYLOAD,2023-05-06 23:12:20,15.08847004,7.82e-05,53.2166,212.6686,116.5329,243.5744,9.261e-06,-1.4e-06,0.0,0 STARLINK-4601,1 53617U 22104AF  23126.96690369 -.00000140  00000-0  92610-5 0  9992,2 53617  53.2166 212.6686 0000782 116.5329 243.5744 15.08847004 38403,6917.859,95.437,540.265,539.183,0.0
53617.0,STARLINK-4601,PAYLOAD,2023-05-07 11:55:25,15.08842351,9.87e-05,53.216,210.2936,85.5108,274.5997,7.0971e-05,8.42e-06,0.0,0 STARLINK-4601,1 53617U 22104AF  23127.49682824  .00000842  00000-0  70971-4 0  9991,2 53617  53.2160 210.2936 0000987  85.5108 274.5997 15.08842351 39052,6917.873,95.437,540.421,539.055,0.0
53617.0,STARLINK-4601,PAYLOAD,2023-05-08 11:46:12,15.08841817,7.47e-05,53.2151,205.8346,83.3098,276.798,6.4472e-05,7.39e-06,0.0,0 STARLINK-4601,1 53617U 22104AF  23128.49042676  .00000739  00000-0  64472-4 0  9991,2 53617  53.2151 205.8346 0000747  83.3098 276.7980 15.08841817 39204,6917.875,95.437,540.257,539.223,0.0
53617.0,STARLINK-4601,PAYLOAD,2023-05-09 11:37:01,15.08772262,0.0001144,53.2165,201.3733,112.1731,247.9383,0.00091636,0.00014299,0.0,0 STARLINK-4601,1 53617U 22104AF  23129.48403980  .00014299  00000-0  91636-3 0  9997,2 53617  53.2165 201.3733 0001144 112.1731 247.9383 15.08772262 39357,6918.087,95.442,540.744,539.161,0.0
53617.0,STARLINK-4601,PAYLOAD,2023-05-10 11:27:47,15.08804933,0.0001279,53.2168,196.9145,94.9486,265.1653,0.00049017,7.514e-05,0.0,0 STARLINK-4601,1 53617U 22104AF  23130.47763611  .00007514  00000-0  49017-3 0  9996,2 53617  53.2168 196.9145 0001279  94.9486 265.1653 15.08804933 39509,6917.988,95.44,540.737,538.968,0.0
53617.0,STARLINK-4601,PAYLOAD,2023-05-10 21:00:06,15.08841285,0.0001099,53.2167,195.1303,83.9339,276.1778,-1.2481e-05,-4.86e-06,0.0,0 STARLINK-4601,1 53617U 22104AF  23130.87507078 -.00000486  00000-0 -12481-4 0  9992,2 53617  53.2167 195.1303 0001099  83.9339 276.1778 15.08841285 39567,6917.876,95.437,540.502,538.981,0.0
53617.0,STARLINK-4601,PAYLOAD,2023-05-11 09:43:11,15.08836609,0.0001149,53.2167,192.7519,88.4109,271.7015,8.0469e-05,9.93e-06,0.0,0 STARLINK-4601,1 53617U 22104AF  23131.40499202  .00000993  00000-0  80469-4 0  9993,2 53617  53.2167 192.7519 0001149  88.4109 271.7015 15.08836609 39648,6917.891,95.438,540.551,538.961,0.0
53617.0,STARLINK-4601,PAYLOAD,2023-05-11 20:50:53,15.08835784,0.0001148,53.2165,190.6703,86.3471,273.7653,6.1105e-05,6.85e-06,0.0,0 STARLINK-4601,1 53617U 22104AF  23131.86867431  .00000685  00000-0  61105-4 0  9990,2 53617  53.2165 190.6703 0001148  86.3471 273.7653 15.08835784 39717,6917.893,95.438,540.552,538.964,0.0
53617.0,STARLINK-4601,PAYLOAD,2023-05-11 22:26:16,15.08835729,0.0001142,53.2164,190.3729,86.1999,273.9124,6.6216e-05,7.66e-06,0.0,0 STARLINK-4601,1 53617U 22104AF  23131.93491439  .00000766  00000-0  66216-4 0  9997,2 53617  53.2164 190.3729 0001142  86.1999 273.9124 15.08835729 39150,6917.893,95.438,540.548,538.968,0.0
53617.0,STARLINK-4601,PAYLOAD,2023-05-12 07:58:35,15.08832188,0.0001153,53.2163,188.5888,87.4652,272.6472,2.5323e-05,1.15e-06,0.0,0 STARLINK-4601,1 53617U 22104AF  23132.33235956  .00000115  00000-0  25323-4 0  9994,2 53617  53.2163 188.5888 0001153  87.4652 272.6472 15.08832188 39783,6917.904,95.438,540.567,538.972,0.0
53617.0,STARLINK-4601,PAYLOAD,2023-05-12 09:33:58,15.0883361,0.0001142,53.2162,188.2911,85.6613,274.451,9.7554e-06,-1.33e-06,0.0,0 STARLINK-4601,1 53617U 22104AF  23132.39859938 -.00000133  00000-0  97554-5 0  9999,2 53617  53.2162 188.2911 0001142  85.6613 274.4510 15.08833610 39224,6917.9,95.438,540.555,538.975,0.0
53617.0,STARLINK-4601,PAYLOAD,2023-05-13 11:00:08,15.08846619,0.0001168,53.2161,183.5335,84.7437,275.3689,9.8813e-05,1.285e-05,0.0,0 STARLINK-4601,1 53617U 22104AF  23133.45842862  .00001285  00000-0  98813-4 0  9991,2 53617  53.2161 183.5335 0001168  84.7437 275.3689 15.08846619 39380,6917.86,95.437,540.533,538.917,0.0
53617.0,STARLINK-4601,PAYLOAD,2023-05-13 20:32:28,15.08830134,9.76e-05,53.2159,181.749,81.3708,278.7395,-3.6876e-05,-8.74e-06,0.0,0 STARLINK-4601,1 53617U 22104AF  23133.85588095 -.00000874  00000-0 -36876-4 0  9996,2 53617  53.2159 181.7490 0000976  81.3708 278.7395 15.08830134 39442,6917.911,95.438,540.451,539.1,0.0
53617.0,STARLINK-4601,PAYLOAD,2023-05-14 12:26:19,15.0883741,0.000125,53.2158,178.7738,82.3246,277.7888,3.0142e-05,1.92e-06,0.0,0 STARLINK-4601,1 53617U 22104AF  23134.51827844  .00000192  00000-0  30142-4 0  9999,2 53617  53.2158 178.7738 0001250  82.3246 277.7888 15.08837410 39547,6917.888,95.438,540.618,538.889,0.0
53617.0,STARLINK-4601,PAYLOAD,2023-05-14 20:23:14,15.08838335,0.0001266,53.2156,177.2874,81.1964,278.9172,2.9747e-05,1.86e-06,0.0,0 STARLINK-4601,1 53617U 22104AF  23134.84947828  .00000186  00000-0  29747-4 0  9992,2 53617  53.2156 177.2874 0001266  81.1964 278.9172 15.08838335 40167,6917.885,95.438,540.626,538.875,0.0
53617.0,STARLINK-4601,PAYLOAD,2023-05-15 09:06:19,15.08845321,0.0001225,53.2155,174.9082,83.3146,276.7986,1.1202e-05,-1.1e-06,0.0,0 STARLINK-4601,1 53617U 22104AF  23135.37939487 -.00000110  00000-0  11202-4 0  9998,2 53617  53.2155 174.9082 0001225  83.3146 276.7986 15.08845321 40243,6917.864,95.437,540.577,538.882,0.0
53617.0,STARLINK-4601,PAYLOAD,2023-05-15 20:14:01,15.0884785,0.00012,53.2155,172.8267,86.9242,273.1888,-1.8481e-05,-5.82e-06,0.0,0 STARLINK-4601,1 53617U 22104AF  23135.84307235 -.00000582  00000-0 -18481-4 0  9990,2 53617  53.2155 172.8267 0001200  86.9242 273.1888 15.08847850 39748,6917.856,95.437,540.552,538.891,0.0
53617.0,STARLINK-4601,PAYLOAD,2023-05-16 05:46:20,15.08836879,0.0001353,53.2154,171.0427,83.8623,276.2524,0.00011483,1.54e-05,0.0,0 STARLINK-4601,1 53617U 22104AF  23136.24051860  .00001540  00000-0  11483-3 0  9992,2 53617  53.2154 171.0427 0001353  83.8623 276.2524 15.08836879 39801,6917.89,95.438,540.691,538.819,0.0
53617.0,STARLINK-4601,PAYLOAD,2023-05-16 12:07:53,15.08840356,0.0001302,53.2155,169.8527,86.9001,273.214,0.00010274,1.348e-05,0.0,0 STARLINK-4601,1 53617U 22104AF  23136.50547654  .00001348  00000-0  10274-3 0  9995,2 53617  53.2155 169.8527 0001302  86.9001 273.2140 15.08840356 40411,6917.879,95.438,540.645,538.844,0.0
53617.0,STARLINK-4601,PAYLOAD,2023-05-17 08:47:54,15.08838492,0.0001286,53.2155,165.9854,95.287,264.8269,3.8153e-05,3.19e-06,0.0,0 STARLINK-4601,1 53617U 22104AF  23137.36659891  .00000319  00000-0  38153-4 0  9991,2 53617  53.2155 165.9854 0001286  95.2870 264.8269 15.08838492 39974,6917.885,95.438,540.64,538.86,0.0
53617.0,STARLINK-4601,PAYLOAD,2023-05-18 13:24:50,15.08835813,0.0001358,53.2159,160.6325,101.1289,258.9856,2.2738e-05,7.4e-07,0.0,0 STARLINK-4601,1 53617U 22104AF  23138.55892226  .00000074  00000-0  22738-4 0  9994,2 53617  53.2159 160.6325 0001358 101.1289 258.9856 15.08835813 40729,6917.893,95.438,540.698,538.819,0.0
